IRIDIUM 921             
1 24873U 97034E   24242.06029591  .00063383  00000+0  13085-2 0  9994
2 24873  86.3742 251.8639 0002077  60.4647 299.6817 15.45615228486697
IRIDIUM 26              
1 24903U 97043A   24241.70564486  .00001377  00000+0  46260-3 0  9992
2 24903  86.3932 233.3151 0002284  84.7810 275.3648 14.36525872414741
IRIDIUM 22              
1 24907U 97043E   24242.23580637  .00001190  00000+0  40812-3 0  9991
2 24907  86.3932 236.3869 0002308  90.6365 269.5096 14.35406581414872
DUMMY MASS 1            
1 24925U 97048A   24241.56819789  .00001035  00000+0  11419-3 0  9993
2 24925  86.3297 270.5356 0009173 100.5147 259.7112 14.86371837461652
DUMMY MASS 2            
1 24926U 97048B   24241.81861797  .00000997  00000+0  11052-3 0  9997
2 24926  86.3298 271.9766 0009872 108.7323 251.4973 14.86129425461474
IRIDIUM 29              
1 24944U 97051A   24241.79759864  .00000973  00000+0  32933-3 0  9994
2 24944  86.3901 266.4525 0002469  95.9205 264.2273 14.35855476411306
IRIDIUM 33              
1 24946U 97051C   24241.82345263  .00000645  00000+0  22203-3 0  9999
2 24946  86.3817 265.6886 0006403 326.2414  33.8373 14.34472758410823
IRIDIUM 28              
1 24948U 97051E   24241.82292943  .00000972  00000+0  32265-3 0  9999
2 24948  86.3907 264.1217 0002045  81.8291 278.3138 14.36810983411859
